[
    {
        "Altitude(m)": 702878.9222556069,
        "Argument of Periapsis(deg)": 0.006834072711976239,
        "Eccentricity": 0.0,
        "Inclination(deg)": 45.0,
        "Latitude(deg)": 17.9696862875366,
        "Longitude(deg)": -29.27184937800403,
        "Mean Anomaly(deg)": -205.80737001151152,
        "RAAN(deg)": 269.9935488351251,
        "Satellite Name": "Constellation 1 1197",
        "Satellite Number": 1197,
        "Semi-Major Axis(m)": 7083131.272910544,
        "Time(s)": 114
    },
    {
        "Altitude(m)": 702876.3738427607,
        "Argument of Periapsis(deg)": 0.006894020718221645,
        "Eccentricity": 0.0,
        "Inclination(deg)": 45.0,
        "Latitude(deg)": 17.928797252491055,
        "Longitude(deg)": -29.2286154402049,
        "Mean Anomaly(deg)": -205.74666887126165,
        "RAAN(deg)": 269.9934922459595,
        "Satellite Name": "Constellation 1 1197",
        "Satellite Number": 1197,
        "Semi-Major Axis(m)": 7083131.272910544,
        "Time(s)": 115
    },
    {
        "Altitude(m)": 702873.8408802694,
        "Argument of Periapsis(deg)": 0.006953968724467052,
        "Eccentricity": 0.0,
        "Inclination(deg)": 45.0,
        "Latitude(deg)": 17.88789654932049,
        "Longitude(deg)": -29.18540324168184,
        "Mean Anomaly(deg)": -205.6859677310117,
        "RAAN(deg)": 269.9934356567939,
        "Satellite Name": "Constellation 1 1197",
        "Satellite Number": 1197,
        "Semi-Major Axis(m)": 7083131.272910544,
        "Time(s)": 116
    },
    {
        "Altitude(m)": 702871.3233967494,
        "Argument of Periapsis(deg)": 0.007013916730712457,
        "Eccentricity": 0.0,
        "Inclination(deg)": 45.0,
        "Latitude(deg)": 17.846984211638357,
        "Longitude(deg)": -29.142212725784304,
        "Mean Anomaly(deg)": -205.62526659076184,
        "RAAN(deg)": 269.9933790676284,
        "Satellite Name": "Constellation 1 1197",
        "Satellite Number": 1197,
        "Semi-Major Axis(m)": 7083131.272910544,
        "Time(s)": 117
    },
    {
        "Altitude(m)": 702868.8214207693,
        "Argument of Periapsis(deg)": 0.007073864736957864,
        "Eccentricity": 0.0,
        "Inclination(deg)": 45.0,
        "Latitude(deg)": 17.806060273015103,
        "Longitude(deg)": -29.09904383589215,
        "Mean Anomaly(deg)": -205.56456545051185,
        "RAAN(deg)": 269.9933224784628,
        "Satellite Name": "Constellation 1 1197",
        "Satellite Number": 1197,
        "Semi-Major Axis(m)": 7083131.272910544,
        "Time(s)": 118
    },
    {
        "Altitude(m)": 702866.3349808208,
        "Argument of Periapsis(deg)": 0.0071338127432032696,
        "Eccentricity": 0.0,
        "Inclination(deg)": 45.0,
        "Latitude(deg)": 17.765124766978822,
        "Longitude(deg)": -29.055896683513293,
        "Mean Anomaly(deg)": -205.50386431026206,
        "RAAN(deg)": 269.9932658892973,
        "Satellite Name": "Constellation 1 1197",
        "Satellite Number": 1197,
        "Semi-Major Axis(m)": 7083131.272910544,
        "Time(s)": 119
    },
    {
        "Altitude(m)": 702863.8641053475,
        "Argument of Periapsis(deg)": 0.007193760749448674,
        "Eccentricity": 0.0,
        "Inclination(deg)": 45.0,
        "Latitude(deg)": 17.724177727015398,
        "Longitude(deg)": -29.0127708758952,
        "Mean Anomaly(deg)": -205.44316317001216,
        "RAAN(deg)": 269.99320930013164,
        "Satellite Name": "Constellation 1 1197",
        "Satellite Number": 1197,
        "Semi-Major Axis(m)": 7083131.272910544,
        "Time(s)": 120
    },
    {
        "Altitude(m)": 702861.4088227272,
        "Argument of Periapsis(deg)": 0.007253708755694079,
        "Eccentricity": 0.0,
        "Inclination(deg)": 45.0,
        "Latitude(deg)": 17.683219186567907,
        "Longitude(deg)": -28.969666524606982,
        "Mean Anomaly(deg)": -205.3824620297622,
        "RAAN(deg)": 269.99315271096606,
        "Satellite Name": "Constellation 1 1197",
        "Satellite Number": 1197,
        "Semi-Major Axis(m)": 7083131.272910544,
        "Time(s)": 121
    },
    {
        "Altitude(m)": 702858.9691612741,
        "Argument of Periapsis(deg)": 0.0073136567619394854,
        "Eccentricity": 0.0,
        "Inclination(deg)": 45.0,
        "Latitude(deg)": 17.642249179037606,
        "Longitude(deg)": -28.926583573152104,
        "Mean Anomaly(deg)": -205.32176088951232,
        "RAAN(deg)": 269.99309612180053,
        "Satellite Name": "Constellation 1 1197",
        "Satellite Number": 1197,
        "Semi-Major Axis(m)": 7083131.272910544,
        "Time(s)": 122
    },
    {
        "Altitude(m)": 702856.5451492377,
        "Argument of Periapsis(deg)": 0.0073736047681848904,
        "Eccentricity": 0.0,
        "Inclination(deg)": 45.0,
        "Latitude(deg)": 17.601267737783346,
        "Longitude(deg)": -28.883521965064507,
        "Mean Anomaly(deg)": -205.2610597492624,
        "RAAN(deg)": 269.99303953263495,
        "Satellite Name": "Constellation 1 1197",
        "Satellite Number": 1197,
        "Semi-Major Axis(m)": 7083131.272910544,
        "Time(s)": 123
    },
    {
        "Altitude(m)": 702854.1368148114,
        "Argument of Periapsis(deg)": 0.007433552774430298,
        "Eccentricity": 0.0,
        "Inclination(deg)": 45.0,
        "Latitude(deg)": 17.560274896122213,
        "Longitude(deg)": -28.840481643909012,
        "Mean Anomaly(deg)": -205.20035860901254,
        "RAAN(deg)": 269.99298294346943,
        "Satellite Name": "Constellation 1 1197",
        "Satellite Number": 1197,
        "Semi-Major Axis(m)": 7083131.272910544,
        "Time(s)": 124
    },
    {
        "Altitude(m)": 702851.7441861286,
        "Argument of Periapsis(deg)": 0.007493500780675703,
        "Eccentricity": 0.0,
        "Inclination(deg)": 45.0,
        "Latitude(deg)": 17.519270687329282,
        "Longitude(deg)": -28.797462553281417,
        "Mean Anomaly(deg)": -205.13965746876258,
        "RAAN(deg)": 269.99292635430385,
        "Satellite Name": "Constellation 1 1197",
        "Satellite Number": 1197,
        "Semi-Major Axis(m)": 7083131.272910544,
        "Time(s)": 125
    },
    {
        "Altitude(m)": 702849.3672912503,
        "Argument of Periapsis(deg)": 0.007553448786921108,
        "Eccentricity": 0.0,
        "Inclination(deg)": 45.0,
        "Latitude(deg)": 17.47825514463783,
        "Longitude(deg)": -28.75446480490556,
        "Mean Anomaly(deg)": -205.07895632851273,
        "RAAN(deg)": 269.9928697651382,
        "Satellite Name": "Constellation 1 1197",
        "Satellite Number": 1197,
        "Semi-Major Axis(m)": 7083131.272910544,
        "Time(s)": 126
    },
    {
        "Altitude(m)": 702847.0061581813,
        "Argument of Periapsis(deg)": 0.007613396793166514,
        "Eccentricity": 0.0,
        "Inclination(deg)": 45.0,
        "Latitude(deg)": 17.43722830123997,
        "Longitude(deg)": -28.711488006244917,
        "Mean Anomaly(deg)": -205.01825518826283,
        "RAAN(deg)": 269.9928131759727,
        "Satellite Name": "Constellation 1 1197",
        "Satellite Number": 1197,
        "Semi-Major Axis(m)": 7083131.272910544,
        "Time(s)": 127
    },
    {
        "Altitude(m)": 702844.660814863,
        "Argument of Periapsis(deg)": 0.007673344799411918,
        "Eccentricity": 0.0,
        "Inclination(deg)": 45.0,
        "Latitude(deg)": 17.396190190285715,
        "Longitude(deg)": -28.66853226908497,
        "Mean Anomaly(deg)": -204.95755404801292,
        "RAAN(deg)": 269.9927565868071,
        "Satellite Name": "Constellation 1 1197",
        "Satellite Number": 1197,
        "Semi-Major Axis(m)": 7083131.272910544,
        "Time(s)": 128
    },
    {
        "Altitude(m)": 702842.3312891796,
        "Argument of Periapsis(deg)": 0.007733292805657325,
        "Eccentricity": 0.0,
        "Inclination(deg)": 45.0,
        "Latitude(deg)": 17.35514084488389,
        "Longitude(deg)": -28.625597537145286,
        "Mean Anomaly(deg)": -204.89685290776305,
        "RAAN(deg)": 269.9926999976416,
        "Satellite Name": "Constellation 1 1197",
        "Satellite Number": 1197,
        "Semi-Major Axis(m)": 7083131.272910544,
        "Time(s)": 129
    },
    {
        "Altitude(m)": 702840.0176089386,
        "Argument of Periapsis(deg)": 0.00779324081190273,
        "Eccentricity": 0.0,
        "Inclination(deg)": 45.0,
        "Latitude(deg)": 17.314080298102006,
        "Longitude(deg)": -28.582683754176347,
        "Mean Anomaly(deg)": -204.83615176751314,
        "RAAN(deg)": 269.99264340847594,
        "Satellite Name": "Constellation 1 1197",
        "Satellite Number": 1197,
        "Semi-Major Axis(m)": 7083131.272910544,
        "Time(s)": 130
    },
    {
        "Altitude(m)": 702837.7198018979,
        "Argument of Periapsis(deg)": 0.007853188818148135,
        "Eccentricity": 0.0,
        "Inclination(deg)": 45.0,
        "Latitude(deg)": 17.273008582966384,
        "Longitude(deg)": -28.539790863959663,
        "Mean Anomaly(deg)": -204.77545062726327,
        "RAAN(deg)": 269.99258681931036,
        "Satellite Name": "Constellation 1 1197",
        "Satellite Number": 1197,
        "Semi-Major Axis(m)": 7083131.272910544,
        "Time(s)": 131
    },
    {
        "Altitude(m)": 702835.4378957442,
        "Argument of Periapsis(deg)": 0.007913136824393542,
        "Eccentricity": 0.0,
        "Inclination(deg)": 45.0,
        "Latitude(deg)": 17.23192573246224,
        "Longitude(deg)": -28.496918810307452,
        "Mean Anomaly(deg)": -204.71474948701334,
        "RAAN(deg)": 269.99253023014484,
        "Satellite Name": "Constellation 1 1197",
        "Satellite Number": 1197,
        "Semi-Major Axis(m)": 7083131.272910544,
        "Time(s)": 132
    }
]